STARLINK-1500           
1 45744U 20038Q   26068.61256777  .00030067  00000+0  88610-3 0  9991
2 45744  53.0377 193.1151 0001932 252.7166 107.3624 15.34798508316807
KUIPER-00205            
1 67774U 26030L   26068.68740929  .00025239  00000+0  70745-3 0  9995
2 67774  51.8813 219.0576 0003255  20.5074 339.6043 15.36438333  5093
