[{"OBJECT_NAME":"STARLINK-1500","OBJECT_ID":"2020-038Q","EPOCH":"2026-03-09T14:42:05.855328","MEAN_MOTION":15.34798508,"ECCENTRICITY":0.0001932,"INCLINATION":53.0377,"RA_OF_ASC_NODE":193.1151,"ARG_OF_PERICENTER":252.7166,"MEAN_ANOMALY":107.3624,"EPHEMERIS_TYPE":0,"CLASSIFICATION_TYPE":"U","NORAD_CAT_ID":45744,"ELEMENT_SET_NO":999,"REV_AT_EPOCH":31680,"BSTAR":0.0008861,"MEAN_MOTION_DOT":0.00030067,"MEAN_MOTION_DDOT":0},{"OBJECT_NAME":"KUIPER-00205","OBJECT_ID":"2026-030L","EPOCH":"2026-03-09T16:29:52.163520","MEAN_MOTION":15.36438333,"ECCENTRICITY":0.00032546,"INCLINATION":51.8813,"RA_OF_ASC_NODE":219.0576,"ARG_OF_PERICENTER":20.5074,"MEAN_ANOMALY":339.6043,"EPHEMERIS_TYPE":0,"CLASSIFICATION_TYPE":"U","NORAD_CAT_ID":67774,"ELEMENT_SET_NO":999,"REV_AT_EPOCH":509,"BSTAR":0.00070744871,"MEAN_MOTION_DOT":0.00025239,"MEAN_MOTION_DDOT":0}]
